{
    "links": {
        "self": "http://www.neowsapp.com/rest/v1/neo/3460262?api_key=iIulBulltgU6a56xZRHN4H3l9WmuAYTsLGpBGhQ2"
    },
    "id": "3460262",
    "neo_reference_id": "3460262",
    "name": "(2009 KM)",
    "designation": "2009 KM",
    "nasa_jpl_url": "http://ssd.jpl.nasa.gov/sbdb.cgi?sstr=3460262",
    "absolute_magnitude_h": 20.2,
    "estimated_diameter": {
        "kilometers": {
            "estimated_diameter_min": 0.2424124811,
            "estimated_diameter_max": 0.5420507863
        },
        "meters": {
            "estimated_diameter_min": 242.4124811008,
            "estimated_diameter_max": 542.0507863358
        },
        "miles": {
            "estimated_diameter_min": 0.1506280858,
            "estimated_diameter_max": 0.3368146392
        },
        "feet": {
            "estimated_diameter_min": 795.3165644948,
            "estimated_diameter_max": 1778.3819018419
        }
    },
    "is_potentially_hazardous_asteroid": false,
    "close_approach_data": [
        {
            "close_approach_date": "2009-06-06",
            "close_approach_date_full": "2009-Jun-06 01:23",
            "epoch_date_close_approach": 1244251380000,
            "relative_velocity": {
                "kilometers_per_second": "18.9197156544",
                "kilometers_per_hour": "68110.9763557374",
                "miles_per_hour": "42321.5119472636"
            },
            "miss_distance": {
                "astronomical": "0.2423167874",
                "lunar": "94.2612302986",
                "kilometers": "36250075.260282838",
                "miles": "22524752.2800976444"
            },
            "orbiting_body": "Earth"
        },
        {
            "close_approach_date": "2009-08-10",
            "close_approach_date_full": "2009-Aug-10 14:03",
            "epoch_date_close_approach": 1249912980000,
            "relative_velocity": {
                "kilometers_per_second": "23.9839968882",
                "kilometers_per_hour": "86342.3887976572",
                "miles_per_hour": "53649.8026392998"
            },
            "miss_distance": {
                "astronomical": "0.0857909829",
                "lunar": "33.3726923481",
                "kilometers": "12834148.307046423",
                "miles": "7974769.9630017174"
            },
            "orbiting_body": "Venus"
        }
    ],
    "orbital_data": {
        "orbit_id": "14",
        "orbit_determination_date": "2017-04-06 09:00:33",
        "first_observation_date": "2009-05-17",
        "last_observation_date": "2009-06-01",
        "data_arc_in_days": 15,
        "observations_used": 64,
        "orbit_uncertainty": "8",
        "minimum_orbit_intersection": ".102337",
        "jupiter_tisserand_invariant": "2.986",
        "epoch_osculation": "2454972.5",
        "eccentricity": ".7835350089220378",
        "semi_major_axis": "2.420482551497918",
        "inclination": "9.509908423401605",
        "ascending_node_longitude": "106.5260703186445",
        "orbital_period": "1375.470756190902",
        "perihelion_distance": ".5239497339143601",
        "perihelion_argument": "227.03308904",
        "aphelion_distance": "4.317015369081476",
        "perihelion_time": "2455029.225350810756",
        "mean_anomaly": "345.1533548060124",
        "mean_motion": ".2617285742933205",
        "equinox": "J2000",
        "orbit_class": {
            "orbit_class_type": "APO",
            "orbit_class_description": "Near-Earth asteroid orbits which cross the Earth’s orbit similar to that of 1862 Apollo",
            "orbit_class_range": "a (semi-major axis) > 1.0 AU; q (perihelion) < 1.017 AU"
        }
    },
    "is_sentry_object": false
}